ONEWEB-0102             
1 47258U 20100A   24321.10458768  .00000186  00000+0  48121-3 0  9993
2 47258  87.8860 105.8029 0001407  95.1264 265.0025 13.12439716188902
ONEWEB-0109             
1 47259U 20100B   24321.41765119  .00000016  00000+0  83984-5 0  9999
2 47259  87.8862 105.7065 0001385  92.9898 267.1389 13.12441939188778
ONEWEB-0110             
1 47260U 20100C   24321.44358395 -.00000621  00000+0 -17630-2 0  9994
2 47260  87.8853 105.6986 0001524  90.0211 270.1092 13.12442975188949
ONEWEB-0111             
1 47261U 20100D   24321.47442187  .00000407  00000+0  10970-2 0  9991
2 47261  87.8858 105.6957 0001464  94.7101 265.4195 13.12444775188788
ONEWEB-0114             
1 47262U 20100E   24321.42898830 -.00000341  00000+0 -98443-3 0  9998
2 47262  87.8855 105.7139 0001175  96.9295 263.1967 13.12444933188739
ONEWEB-0117             
1 47263U 20100F   24321.42088450 -.00000232  00000+0 -67903-3 0  9994
2 47263  87.8862 105.6974 0001556  95.7426 264.3880 13.12438852188741
